E-SPACE_L_00011034-199
1 72580U 25076RK  26070.40806713  .00000000  00000+0  00000-0 0  9995
2 72580  51.0000 330.0000 0000000   0.0000 201.6667 14.94379308    13
E-SPACE_L_00011034-200
1 72581U 23778MS  26070.40806713  .00000000  00000+0  00000-0 0  9993
2 72581  51.0000 330.0000 0000000   0.0000 202.6667 14.94379308    15
E-SPACE_L_00011034-201
1 72582U 26457VO  26070.40806713  .00000000  00000+0  00000-0 0  9991
2 72582  51.0000 330.0000 0000000   0.0000 203.6667 14.94379308    17
E-SPACE_L_00011034-202
1 72583U 26981MO  26070.40806713  .00000000  00000+0  00000-0 0  9994
2 72583  51.0000 330.0000 0000000   0.0000 204.6667 14.94379308    19
E-SPACE_L_00011034-203
1 72584U 25345LI  26070.40806713  .00000000  00000+0  00000-0 0  9998
2 72584  51.0000 330.0000 0000000   0.0000 205.6667 14.94379308    11
E-SPACE_L_00011034-204
1 72585U 22980GT  26070.40806713  .00000000  00000+0  00000-0 0  9991
2 72585  51.0000 330.0000 0000000   0.0000 206.6667 14.94379308    13
E-SPACE_L_00011034-205
1 72586U 24695NI  26070.40806713  .00000000  00000+0  00000-0 0  9997
2 72586  51.0000 330.0000 0000000   0.0000 207.6667 14.94379308    15
E-SPACE_L_00011034-206
1 72587U 22206XB  26070.40806713  .00000000  00000+0  00000-0 0  9994
2 72587  51.0000 330.0000 0000000   0.0000 208.6667 14.94379308    17
E-SPACE_L_00011034-207
1 72588U 22490VQ  26070.40806713  .00000000  00000+0  00000-0 0  9990
2 72588  51.0000 330.0000 0000000   0.0000 209.6667 14.94379308    19
E-SPACE_L_00011034-208
1 72589U 24583QP  26070.40806713  .00000000  00000+0  00000-0 0  9996
2 72589  51.0000 330.0000 0000000   0.0000 210.6667 14.94379308    12
E-SPACE_L_00011034-209
1 72590U 25930J   26070.40806713  .00000000  00000+0  00000-0 0  9995
2 72590  51.0000 330.0000 0000000   0.0000 211.6667 14.94379308    15
E-SPACE_L_00011034-210
1 72591U 22147FO  26070.40806713  .00000000  00000+0  00000-0 0  9993
2 72591  51.0000 330.0000 0000000   0.0000 212.6667 14.94379308    17
E-SPACE_L_00011034-211
1 72592U 24124GW  26070.40806713  .00000000  00000+0  00000-0 0  9991
2 72592  51.0000 330.0000 0000000   0.0000 213.6667 14.94379308    19
E-SPACE_L_00011034-212
1 72593U 22683FL  26070.40806713  .00000000  00000+0  00000-0 0  9990
2 72593  51.0000 330.0000 0000000   0.0000 214.6667 14.94379308    11
E-SPACE_L_00011034-213
1 72594U 23954QF  26070.40806713  .00000000  00000+0  00000-0 0  9993
2 72594  51.0000 330.0000 0000000   0.0000 215.6667 14.94379308    13
E-SPACE_L_00011034-214
1 72595U 23550AG  26070.40806713  .00000000  00000+0  00000-0 0  9996
2 72595  51.0000 330.0000 0000000   0.0000 216.6667 14.94379308    15
E-SPACE_L_00011034-215
1 72596U 26504ZQ  26070.40806713  .00000000  00000+0  00000-0 0  9999
2 72596  51.0000 330.0000 0000000   0.0000 217.6667 14.94379308    17
E-SPACE_L_00011034-216
1 72597U 24891MN  26070.40806713  .00000000  00000+0  00000-0 0  9997
2 72597  51.0000 330.0000 0000000   0.0000 218.6667 14.94379308    19
E-SPACE_L_00011034-217
1 72598U 25542FV  26070.40806713  .00000000  00000+0  00000-0 0  9992
2 72598  51.0000 330.0000 0000000   0.0000 219.6667 14.94379308    11
E-SPACE_L_00011034-218
1 72599U 22496AE  26070.40806713  .00000000  00000+0  00000-0 0  9998
2 72599  51.0000 330.0000 0000000   0.0000 220.6667 14.94379308    14
E-SPACE_L_00011034-219
1 72600U 22165XO  26070.40806713  .00000000  00000+0  00000-0 0  9994
2 72600  51.0000 330.0000 0000000   0.0000 221.6667 14.94379308    18
E-SPACE_L_00011034-220
1 72601U 22530WX  26070.40806713  .00000000  00000+0  00000-0 0  9991
2 72601  51.0000 330.0000 0000000   0.0000 222.6667 14.94379308    10
E-SPACE_L_00011034-221
1 72602U 22551JW  26070.40806713  .00000000  00000+0  00000-0 0  9995
2 72602  51.0000 330.0000 0000000   0.0000 223.6667 14.94379308    12
E-SPACE_L_00011034-222
1 72603U 23664KD  26070.40806713  .00000000  00000+0  00000-0 0  9992
2 72603  51.0000 330.0000 0000000   0.0000 224.6667 14.94379308    14
E-SPACE_L_00011034-223
1 72604U 23039L   26070.40806713  .00000000  00000+0  00000-0 0  9999
2 72604  51.0000 330.0000 0000000   0.0000 225.6667 14.94379308    16
E-SPACE_L_00011034-224
1 72605U 26487NX  26070.40806713  .00000000  00000+0  00000-0 0  9990
2 72605  51.0000 330.0000 0000000   0.0000 226.6667 14.94379308    18
E-SPACE_L_00011034-225
1 72606U 22833DL  26070.40806713  .00000000  00000+0  00000-0 0  9992
2 72606  51.0000 330.0000 0000000   0.0000 227.6667 14.94379308    10
E-SPACE_L_00011034-226
1 72607U 24315KH  26070.40806713  .00000000  00000+0  00000-0 0  9990
2 72607  51.0000 330.0000 0000000   0.0000 228.6667 14.94379308    12
E-SPACE_L_00011034-227
1 72608U 26642VS  26070.40806713  .00000000  00000+0  00000-0 0  9996
2 72608  51.0000 330.0000 0000000   0.0000 229.6667 14.94379308    14
E-SPACE_L_00011034-228
1 72609U 24038BQ  26070.40806713  .00000000  00000+0  00000-0 0  9994
2 72609  51.0000 330.0000 0000000   0.0000 230.6667 14.94379308    17
E-SPACE_L_00011034-229
1 72610U 22746HA  26070.40806713  .00000000  00000+0  00000-0 0  9990
2 72610  51.0000 330.0000 0000000   0.0000 231.6667 14.94379308    10
E-SPACE_L_00011034-230
1 72611U 24909YO  26070.40806713  .00000000  00000+0  00000-0 0  9994
2 72611  51.0000 330.0000 0000000   0.0000 232.6667 14.94379308    12
E-SPACE_L_00011034-231
1 72612U 24791LA  26070.40806713  .00000000  00000+0  00000-0 0  9994
2 72612  51.0000 330.0000 0000000   0.0000 233.6667 14.94379308    14
E-SPACE_L_00011034-232
1 72613U 25483EL  26070.40806713  .00000000  00000+0  00000-0 0  9994
2 72613  51.0000 330.0000 0000000   0.0000 234.6667 14.94379308    16
E-SPACE_L_00011034-233
1 72614U 23570RT  26070.40806713  .00000000  00000+0  00000-0 0  9990
2 72614  51.0000 330.0000 0000000   0.0000 235.6667 14.94379308    18
E-SPACE_L_00011034-234
1 72615U 26836MT  26070.40806713  .00000000  00000+0  00000-0 0  9999
2 72615  51.0000 330.0000 0000000   0.0000 236.6667 14.94379308    10
E-SPACE_L_00011034-235
1 72616U 23630JB  26070.40806713  .00000000  00000+0  00000-0 0  9999
2 72616  51.0000 330.0000 0000000   0.0000 237.6667 14.94379308    12
E-SPACE_L_00011034-236
1 72617U 23487CA  26070.40806713  .00000000  00000+0  00000-0 0  9990
2 72617  51.0000 330.0000 0000000   0.0000 238.6667 14.94379308    14
E-SPACE_L_00011034-237
1 72618U 25650HH  26070.40806713  .00000000  00000+0  00000-0 0  9995
2 72618  51.0000 330.0000 0000000   0.0000 239.6667 14.94379308    16
E-SPACE_L_00011034-238
1 72619U 24112WV  26070.40806713  .00000000  00000+0  00000-0 0  9998
2 72619  51.0000 330.0000 0000000   0.0000 240.6667 14.94379308    19
E-SPACE_L_00011034-239
1 72620U 25209ME  26070.40806713  .00000000  00000+0  00000-0 0  9998
2 72620  51.0000 330.0000 0000000   0.0000 241.6667 14.94379308    12
E-SPACE_L_00011034-240
1 72621U 26451GU  26070.40806713  .00000000  00000+0  00000-0 0  9999
2 72621  51.0000 330.0000 0000000   0.0000 242.6667 14.94379308    14
E-SPACE_L_00011034-241
1 72622U 22194TG  26070.40806713  .00000000  00000+0  00000-0 0  9990
2 72622  51.0000 330.0000 0000000   0.0000 243.6667 14.94379308    16
E-SPACE_L_00011034-242
1 72623U 22912TP  26070.40806713  .00000000  00000+0  00000-0 0  9999
2 72623  51.0000 330.0000 0000000   0.0000 244.6667 14.94379308    18
E-SPACE_L_00011034-243
1 72624U 22078KP  26070.40806713  .00000000  00000+0  00000-0 0  9993
2 72624  51.0000 330.0000 0000000   0.0000 245.6667 14.94379308    10
E-SPACE_L_00011034-244
1 72625U 25036FR  26070.40806713  .00000000  00000+0  00000-0 0  9991
2 72625  51.0000 330.0000 0000000   0.0000 246.6667 14.94379308    12
E-SPACE_L_00011034-245
1 72626U 22091XC  26070.40806713  .00000000  00000+0  00000-0 0  9990
2 72626  51.0000 330.0000 0000000   0.0000 247.6667 14.94379308    14
E-SPACE_L_00011034-246
1 72627U 22758JH  26070.40806713  .00000000  00000+0  00000-0 0  9991
2 72627  51.0000 330.0000 0000000   0.0000 248.6667 14.94379308    16
E-SPACE_L_00011034-247
1 72628U 25990BA  26070.40806713  .00000000  00000+0  00000-0 0  9993
2 72628  51.0000 330.0000 0000000   0.0000 249.6667 14.94379308    18
E-SPACE_L_00011034-248
1 72629U 22048YM  26070.40806713  .00000000  00000+0  00000-0 0  9995
2 72629  51.0000 330.0000 0000000   0.0000 250.6667 14.94379308    11
E-SPACE_L_00011034-249
1 72630U 22165R   26070.40806713  .00000000  00000+0  00000-0 0  9997
2 72630  51.0000 330.0000 0000000   0.0000 251.6667 14.94379308    14
E-SPACE_L_00011034-250
1 72631U 26814GS  26070.40806713  .00000000  00000+0  00000-0 0  9993
2 72631  51.0000 330.0000 0000000   0.0000 252.6667 14.94379308    16
E-SPACE_L_00011034-251
1 72632U 26774IV  26070.40806713  .00000000  00000+0  00000-0 0  9999
2 72632  51.0000 330.0000 0000000   0.0000 253.6667 14.94379308    18
E-SPACE_L_00011034-252
1 72633U 23235KZ  26070.40806713  .00000000  00000+0  00000-0 0  9999
2 72633  51.0000 330.0000 0000000   0.0000 254.6667 14.94379308    10
E-SPACE_L_00011034-253
1 72634U 25725DC  26070.40806713  .00000000  00000+0  00000-0 0  9996
2 72634  51.0000 330.0000 0000000   0.0000 255.6667 14.94379308    12
E-SPACE_L_00011034-254
1 72635U 23085RM  26070.40806713  .00000000  00000+0  00000-0 0  9994
2 72635  51.0000 330.0000 0000000   0.0000 256.6667 14.94379308    14
E-SPACE_L_00011034-255
1 72636U 23042SA  26070.40806713  .00000000  00000+0  00000-0 0  9998
2 72636  51.0000 330.0000 0000000   0.0000 257.6667 14.94379308    16
E-SPACE_L_00011034-256
1 72637U 24122YE  26070.40806713  .00000000  00000+0  00000-0 0  9999
2 72637  51.0000 330.0000 0000000   0.0000 258.6667 14.94379308    18
E-SPACE_L_00011034-257
1 72638U 26752RM  26070.40806713  .00000000  00000+0  00000-0 0  9991
2 72638  51.0000 330.0000 0000000   0.0000 259.6667 14.94379308    10
E-SPACE_L_00011034-258
1 72639U 25673FI  26070.40806713  .00000000  00000+0  00000-0 0  9993
2 72639  51.0000 330.0000 0000000   0.0000 260.6667 14.94379308    13
E-SPACE_L_00011034-259
1 72640U 23295TJ  26070.40806713  .00000000  00000+0  00000-0 0  9993
2 72640  51.0000 330.0000 0000000   0.0000 261.6667 14.94379308    16
